STARLINK-31400          
1 59405U 24064H   25222.25686680  .00003512  00000+0  13699-3 0  9994
2 59405  43.0019 169.9089 0001156 265.3601  94.7119 15.27599093 76891
STARLINK-31391          
1 59406U 24064J   25222.26072626  .00001962  00000+0  80770-4 0  9997
2 59406  42.9986 169.9392 0001084 276.2563  83.8165 15.27592255 76891
STARLINK-31387          
1 59407U 24064K   25222.56212593  .00000012  00000+0  99301-5 0  9996
2 59407  42.9987 168.7631 0000591 290.8158  69.2630 15.27577314 76939
STARLINK-31396          
1 59409U 24064M   25222.53402448 -.00001642  00000+0 -50195-4 0  9994
2 59409  42.9988 158.1561 0000764 260.6665  99.4100 15.27566145 76990
STARLINK-31412          
1 59410U 24064N   25222.54028658 -.00008358  00000+0 -29484-3 0  9991
2 59410  42.9990 168.5884 0000116   5.1001 354.9852 15.27550230 76930
STARLINK-31483          
1 59411U 24064P   25222.55183971  .00000008  00000+0  98127-5 0  9997
2 59411  42.9999 168.6780 0001024 293.9017  66.1727 15.27578157 76930
STARLINK-31568          
1 59412U 24064Q   25222.55439902  .00002873  00000+0  11386-3 0  9998
2 59412  43.0009 168.6984 0001786 272.1974  87.8673 15.27590493 76934
STARLINK-31615          
1 59413U 24064R   25222.54767124 -.00000364  00000+0 -37279-5 0  9994
2 59413  42.9948 161.7075 0000231 248.7323 111.3504 15.27576596 77015
STARLINK-31457          
1 59414U 24064S   25222.55024861 -.00001839  00000+0 -57363-4 0  9993
2 59414  43.0002 161.7264 0000738 354.7733   5.3111 15.27562709 77011
STARLINK-31398          
1 59415U 24064T   25222.53642734 -.00000186  00000+0  27769-5 0  9998
2 59415  43.0015 168.5595 0000943 267.4366  92.6378 15.27573427 76931
STARLINK-31399          
1 59416U 24064U   25222.20304771  .00002775  00000+0  11026-3 0  9991
2 59416  43.0012 170.3537 0001286 257.7300 102.3407 15.27595372 76886
STARLINK-31401          
1 59417U 24064V   25222.54380001  .00001871  00000+0  77495-4 0  9998
2 59417  43.0027 161.6987 0001806 272.0356  88.0289 15.27578857 76768
STARLINK-31414          
1 59418U 24064W   25222.54799393 -.00003346  00000+0 -11218-3 0  9998
2 59418  43.0011 168.6494 0000701 297.1181  62.9599 15.27563420 76933
STARLINK-31415          
1 59419U 24064X   25222.57366945  .00001136  00000+0  50824-4 0  9995
2 59419  43.0067 168.8506 0004129 268.2447  91.7932 15.27579783 76933
STARLINK-31466          
1 59420U 24064Y   25222.56984570 -.00001761  00000+0 -54520-4 0  9999
2 59420  43.0008 168.8205 0000352 260.8954  99.1858 15.27565873 76935
STARLINK-11087 [DTC]    
1 59421U 24065A   25222.25910318 -.00000784  00000+0 -16283-5 0  9995
2 59421  53.1590  56.2990 0000036 215.4034 144.6981 15.69705488 78309
STARLINK-11090 [DTC]    
1 59422U 24065B   25222.24440406 -.00002307  00000+0 -14196-4 0  9994
2 59422  53.1592  56.2035 0000945 124.3499 235.7609 15.69700571 78323
