[{"OBJECT_NAME":"STARLINK-31400","OBJECT_ID":"2024-064H","EPOCH":"2025-08-10T06:09:53.291520","MEAN_MOTION":15.27599093,"ECCENTRICITY":0.0001156,"INCLINATION":43.0019,"RA_OF_ASC_NODE":169.9089,"ARG_OF_PERICENTER":265.3601,"MEAN_ANOMALY":94.7119,"EPHEMERIS_TYPE":0,"CLASSIFICATION_TYPE":"U","NORAD_CAT_ID":59405,"ELEMENT_SET_NO":999,"REV_AT_EPOCH":7689,"BSTAR":0.00013699,"MEAN_MOTION_DOT":3.512e-5,"MEAN_MOTION_DDOT":0},{"OBJECT_NAME":"STARLINK-31391","OBJECT_ID":"2024-064J","EPOCH":"2025-08-10T06:15:26.748864","MEAN_MOTION":15.27592255,"ECCENTRICITY":0.0001084,"INCLINATION":42.9986,"RA_OF_ASC_NODE":169.9392,"ARG_OF_PERICENTER":276.2563,"MEAN_ANOMALY":83.8165,"EPHEMERIS_TYPE":0,"CLASSIFICATION_TYPE":"U","NORAD_CAT_ID":59406,"ELEMENT_SET_NO":999,"REV_AT_EPOCH":7689,"BSTAR":8.077e-5,"MEAN_MOTION_DOT":1.962e-5,"MEAN_MOTION_DDOT":0},{"OBJECT_NAME":"STARLINK-31387","OBJECT_ID":"2024-064K","EPOCH":"2025-08-10T13:29:27.680352","MEAN_MOTION":15.27577314,"ECCENTRICITY":5.91e-5,"INCLINATION":42.9987,"RA_OF_ASC_NODE":168.7631,"ARG_OF_PERICENTER":290.8158,"MEAN_ANOMALY":69.263,"EPHEMERIS_TYPE":0,"CLASSIFICATION_TYPE":"U","NORAD_CAT_ID":59407,"ELEMENT_SET_NO":999,"REV_AT_EPOCH":7693,"BSTAR":9.9301e-6,"MEAN_MOTION_DOT":1.2e-7,"MEAN_MOTION_DDOT":0},{"OBJECT_NAME":"STARLINK-31396","OBJECT_ID":"2024-064M","EPOCH":"2025-08-10T12:48:59.715072","MEAN_MOTION":15.27566145,"ECCENTRICITY":7.64e-5,"INCLINATION":42.9988,"RA_OF_ASC_NODE":158.1561,"ARG_OF_PERICENTER":260.6665,"MEAN_ANOMALY":99.41,"EPHEMERIS_TYPE":0,"CLASSIFICATION_TYPE":"U","NORAD_CAT_ID":59409,"ELEMENT_SET_NO":999,"REV_AT_EPOCH":7699,"BSTAR":-5.0195e-5,"MEAN_MOTION_DOT":-1.642e-5,"MEAN_MOTION_DDOT":0},{"OBJECT_NAME":"STARLINK-31412","OBJECT_ID":"2024-064N","EPOCH":"2025-08-10T12:58:00.760512","MEAN_MOTION":15.2755023,"ECCENTRICITY":1.16e-5,"INCLINATION":42.999,"RA_OF_ASC_NODE":168.5884,"ARG_OF_PERICENTER":5.1001,"MEAN_ANOMALY":354.9852,"EPHEMERIS_TYPE":0,"CLASSIFICATION_TYPE":"U","NORAD_CAT_ID":59410,"ELEMENT_SET_NO":999,"REV_AT_EPOCH":7693,"BSTAR":-0.00029484,"MEAN_MOTION_DOT":-8.358e-5,"MEAN_MOTION_DDOT":0},{"OBJECT_NAME":"STARLINK-31483","OBJECT_ID":"2024-064P","EPOCH":"2025-08-10T13:14:38.950944","MEAN_MOTION":15.27578157,"ECCENTRICITY":0.0001024,"INCLINATION":42.9999,"RA_OF_ASC_NODE":168.678,"ARG_OF_PERICENTER":293.9017,"MEAN_ANOMALY":66.1727,"EPHEMERIS_TYPE":0,"CLASSIFICATION_TYPE":"U","NORAD_CAT_ID":59411,"ELEMENT_SET_NO":999,"REV_AT_EPOCH":7693,"BSTAR":9.8127e-6,"MEAN_MOTION_DOT":8.0e-8,"MEAN_MOTION_DDOT":0},{"OBJECT_NAME":"STARLINK-31568","OBJECT_ID":"2024-064Q","EPOCH":"2025-08-10T13:18:20.075328","MEAN_MOTION":15.27590493,"ECCENTRICITY":0.0001786,"INCLINATION":43.0009,"RA_OF_ASC_NODE":168.6984,"ARG_OF_PERICENTER":272.1974,"MEAN_ANOMALY":87.8673,"EPHEMERIS_TYPE":0,"CLASSIFICATION_TYPE":"U","NORAD_CAT_ID":59412,"ELEMENT_SET_NO":999,"REV_AT_EPOCH":7693,"BSTAR":0.00011386,"MEAN_MOTION_DOT":2.873e-5,"MEAN_MOTION_DDOT":0},{"OBJECT_NAME":"STARLINK-31615","OBJECT_ID":"2024-064R","EPOCH":"2025-08-10T13:08:38.795136","MEAN_MOTION":15.27576596,"ECCENTRICITY":2.31e-5,"INCLINATION":42.9948,"RA_OF_ASC_NODE":161.7075,"ARG_OF_PERICENTER":248.7323,"MEAN_ANOMALY":111.3504,"EPHEMERIS_TYPE":0,"CLASSIFICATION_TYPE":"U","NORAD_CAT_ID":59413,"ELEMENT_SET_NO":999,"REV_AT_EPOCH":7701,"BSTAR":-3.7279e-6,"MEAN_MOTION_DOT":-3.64e-6,"MEAN_MOTION_DDOT":0},{"OBJECT_NAME":"STARLINK-31457","OBJECT_ID":"2024-064S","EPOCH":"2025-08-10T13:12:21.479904","MEAN_MOTION":15.27562709,"ECCENTRICITY":7.38e-5,"INCLINATION":43.0002,"RA_OF_ASC_NODE":161.7264,"ARG_OF_PERICENTER":354.7733,"MEAN_ANOMALY":5.3111,"EPHEMERIS_TYPE":0,"CLASSIFICATION_TYPE":"U","NORAD_CAT_ID":59414,"ELEMENT_SET_NO":999,"REV_AT_EPOCH":7701,"BSTAR":-5.7363e-5,"MEAN_MOTION_DOT":-1.839e-5,"MEAN_MOTION_DDOT":0},{"OBJECT_NAME":"STARLINK-31398","OBJECT_ID":"2024-064T","EPOCH":"2025-08-10T12:52:27.322176","MEAN_MOTION":15.27573427,"ECCENTRICITY":9.43e-5,"INCLINATION":43.0015,"RA_OF_ASC_NODE":168.5595,"ARG_OF_PERICENTER":267.4366,"MEAN_ANOMALY":92.6378,"EPHEMERIS_TYPE":0,"CLASSIFICATION_TYPE":"U","NORAD_CAT_ID":59415,"ELEMENT_SET_NO":999,"REV_AT_EPOCH":7693,"BSTAR":2.7769e-6,"MEAN_MOTION_DOT":-1.86e-6,"MEAN_MOTION_DDOT":0},{"OBJECT_NAME":"STARLINK-31399","OBJECT_ID":"2024-064U","EPOCH":"2025-08-10T04:52:23.322144","MEAN_MOTION":15.27595372,"ECCENTRICITY":0.0001286,"INCLINATION":43.0012,"RA_OF_ASC_NODE":170.3537,"ARG_OF_PERICENTER":257.73,"MEAN_ANOMALY":102.3407,"EPHEMERIS_TYPE":0,"CLASSIFICATION_TYPE":"U","NORAD_CAT_ID":59416,"ELEMENT_SET_NO":999,"REV_AT_EPOCH":7688,"BSTAR":0.00011026,"MEAN_MOTION_DOT":2.775e-5,"MEAN_MOTION_DDOT":0},{"OBJECT_NAME":"STARLINK-31401","OBJECT_ID":"2024-064V","EPOCH":"2025-08-10T13:03:04.320864","MEAN_MOTION":15.27578857,"ECCENTRICITY":0.0001806,"INCLINATION":43.0027,"RA_OF_ASC_NODE":161.6987,"ARG_OF_PERICENTER":272.0356,"MEAN_ANOMALY":88.0289,"EPHEMERIS_TYPE":0,"CLASSIFICATION_TYPE":"U","NORAD_CAT_ID":59417,"ELEMENT_SET_NO":999,"REV_AT_EPOCH":7676,"BSTAR":7.7495e-5,"MEAN_MOTION_DOT":1.871e-5,"MEAN_MOTION_DDOT":0},{"OBJECT_NAME":"STARLINK-31414","OBJECT_ID":"2024-064W","EPOCH":"2025-08-10T13:09:06.675552","MEAN_MOTION":15.2756342,"ECCENTRICITY":7.01e-5,"INCLINATION":43.0011,"RA_OF_ASC_NODE":168.6494,"ARG_OF_PERICENTER":297.1181,"MEAN_ANOMALY":62.9599,"EPHEMERIS_TYPE":0,"CLASSIFICATION_TYPE":"U","NORAD_CAT_ID":59418,"ELEMENT_SET_NO":999,"REV_AT_EPOCH":7693,"BSTAR":-0.00011218,"MEAN_MOTION_DOT":-3.346e-5,"MEAN_MOTION_DDOT":0},{"OBJECT_NAME":"STARLINK-31415","OBJECT_ID":"2024-064X","EPOCH":"2025-08-10T13:46:05.040480","MEAN_MOTION":15.27579783,"ECCENTRICITY":0.0004129,"INCLINATION":43.0067,"RA_OF_ASC_NODE":168.8506,"ARG_OF_PERICENTER":268.2447,"MEAN_ANOMALY":91.7932,"EPHEMERIS_TYPE":0,"CLASSIFICATION_TYPE":"U","NORAD_CAT_ID":59419,"ELEMENT_SET_NO":999,"REV_AT_EPOCH":7693,"BSTAR":5.0824e-5,"MEAN_MOTION_DOT":1.136e-5,"MEAN_MOTION_DDOT":0},{"OBJECT_NAME":"STARLINK-31466","OBJECT_ID":"2024-064Y","EPOCH":"2025-08-10T13:40:34.668480","MEAN_MOTION":15.27565873,"ECCENTRICITY":3.52e-5,"INCLINATION":43.0008,"RA_OF_ASC_NODE":168.8205,"ARG_OF_PERICENTER":260.8954,"MEAN_ANOMALY":99.1858,"EPHEMERIS_TYPE":0,"CLASSIFICATION_TYPE":"U","NORAD_CAT_ID":59420,"ELEMENT_SET_NO":999,"REV_AT_EPOCH":7693,"BSTAR":-5.452e-5,"MEAN_MOTION_DOT":-1.761e-5,"MEAN_MOTION_DDOT":0},{"OBJECT_NAME":"STARLINK-11087 [DTC]","OBJECT_ID":"2024-065A","EPOCH":"2025-08-10T06:13:06.514752","MEAN_MOTION":15.69705488,"ECCENTRICITY":3.6e-6,"INCLINATION":53.159,"RA_OF_ASC_NODE":56.299,"ARG_OF_PERICENTER":215.4034,"MEAN_ANOMALY":144.6981,"EPHEMERIS_TYPE":0,"CLASSIFICATION_TYPE":"U","NORAD_CAT_ID":59421,"ELEMENT_SET_NO":999,"REV_AT_EPOCH":7830,"BSTAR":-1.6283e-6,"MEAN_MOTION_DOT":-7.84e-6,"MEAN_MOTION_DDOT":0},{"OBJECT_NAME":"STARLINK-11090 [DTC]","OBJECT_ID":"2024-065B","EPOCH":"2025-08-10T05:51:56.510784","MEAN_MOTION":15.69700571,"ECCENTRICITY":9.45e-5,"INCLINATION":53.1592,"RA_OF_ASC_NODE":56.2035,"ARG_OF_PERICENTER":124.3499,"MEAN_ANOMALY":235.7609,"EPHEMERIS_TYPE":0,"CLASSIFICATION_TYPE":"U","NORAD_CAT_ID":59422,"ELEMENT_SET_NO":999,"REV_AT_EPOCH":7832,"BSTAR":-1.4196e-5,"MEAN_MOTION_DOT":-2.307e-5,"MEAN_MOTION_DDOT":0}]
